start=new Date('2021-11-03T00:00:00.000Z').valueOf();
sats=[{"DECAY_DATE":null,"APOAPSIS":"548.495","NORAD_CAT_ID":"47583","MEAN_MOTION":"15.06388530","REF_FRAME":"TEME","ARG_OF_PERICENTER":"71.1284","RCS_SIZE":"LARGE","RA_OF_ASC_NODE":"310.2957","LAUNCH_DATE":"2021-02-04","TLE_LINE2":"2 47583  53.0534 310.2957 0001800  71.1284 288.9900 15.06388530 42065","MEAN_MOTION_DDOT":"0.0000000000000","MEAN_ANOMALY":"288.9900","MEAN_ELEMENT_THEORY":"SGP4","PERIAPSIS":"546.002","ELEMENT_SET_NO":"999","SEMIMAJOR_AXIS":"6925.384","ECCENTRICITY":"0.00018000","TLE_LINE1":"1 47583U 21009AM  21306.71982666 -.00000370  00000-0 -59277-5 0  9993","OBJECT_TYPE":"PAYLOAD","TIME_SYSTEM":"UTC","EPOCH":"2021-11-02T17:16:33.023424","REV_AT_EPOCH":"4206","CENTER_NAME":"EARTH","FILE":"3198408","SITE":"AFETR","GP_ID":"188777529","OBJECT_ID":"2021-009AM","OBJECT_NAME":"STARLINK-1987","EPHEMERIS_TYPE":"0","INCLINATION":"53.0534","MEAN_MOTION_DOT":"-0.00000370","COUNTRY_CODE":"US","CLASSIFICATION_TYPE":"U","BSTAR":"-0.00000592770000","PERIOD":"95.593"},{"GP_ID":"188777530","REV_AT_EPOCH":"4306","CENTER_NAME":"EARTH","FILE":"3198408","SITE":"AFETR","CLASSIFICATION_TYPE":"U","BSTAR":"-0.00004695900000","PERIOD":"92.147","OBJECT_NAME":"STARLINK-1988","OBJECT_ID":"2021-009AN","EPHEMERIS_TYPE":"0","INCLINATION":"53.0533","MEAN_MOTION_DOT":"-0.00004841","COUNTRY_CODE":"US","MEAN_MOTION":"15.62721326","ARG_OF_PERICENTER":"277.4194","REF_FRAME":"TEME","RCS_SIZE":"LARGE","RA_OF_ASC_NODE":"236.8652","DECAY_DATE":null,"NORAD_CAT_ID":"47584","APOAPSIS":"385.096","TLE_LINE1":"1 47584U 21009AN  21306.51919347 -.00004841  00000-0 -46959-4 0  9997","OBJECT_TYPE":"PAYLOAD","TIME_SYSTEM":"UTC","EPOCH":"2021-11-02T12:27:38.315808","LAUNCH_DATE":"2021-02-04","TLE_LINE2":"2 47584  53.0533 236.8652 0007833 277.4194  82.5929 15.62721326 43069","MEAN_MOTION_DDOT":"0.0000000000000","MEAN_ANOMALY":"82.5929","MEAN_ELEMENT_THEORY":"SGP4","PERIAPSIS":"374.509","SEMIMAJOR_AXIS":"6757.937","ELEMENT_SET_NO":"999","ECCENTRICITY":"0.00078330"},{"RCS_SIZE":"LARGE","RA_OF_ASC_NODE":"312.2553","ARG_OF_PERICENTER":"21.8159","REF_FRAME":"TEME","MEAN_MOTION":"15.06404248","APOAPSIS":"551.751","NORAD_CAT_ID":"47585","DECAY_DATE":null,"EPOCH":"2021-11-02T06:44:54.355488","OBJECT_TYPE":"PAYLOAD","TIME_SYSTEM":"UTC","TLE_LINE1":"1 47585U 21009AP  21306.28118467  .00003071  00000-0  22501-3 0  9994","ELEMENT_SET_NO":"999","SEMIMAJOR_AXIS":"6925.336","ECCENTRICITY":"0.00065710","PERIAPSIS":"542.650","MEAN_ELEMENT_THEORY":"SGP4","MEAN_ANOMALY":"338.3108","MEAN_MOTION_DDOT":"0.0000000000000","TLE_LINE2":"2 47585  53.0554 312.2553 0006571  21.8159 338.3108 15.06404248 41385","LAUNCH_DATE":"2021-02-04","GP_ID":"188738383","SITE":"AFETR","FILE":"3197731","REV_AT_EPOCH":"4138","CENTER_NAME":"EARTH","PERIOD":"95.592","BSTAR":"0.00022501000000","CLASSIFICATION_TYPE":"U","COUNTRY_CODE":"US","MEAN_MOTION_DOT":"0.00003071","INCLINATION":"53.0554","EPHEMERIS_TYPE":"0","OBJECT_NAME":"STARLINK-1989","OBJECT_ID":"2021-009AP"},{"PERIOD":"95.592","BSTAR":"0.00005123900000","CLASSIFICATION_TYPE":"U","COUNTRY_CODE":"US","MEAN_MOTION_DOT":"0.00000482","INCLINATION":"53.0556","EPHEMERIS_TYPE":"0","OBJECT_NAME":"STARLINK-1990","OBJECT_ID":"2021-009AQ","GP_ID":"188774354","SITE":"AFETR","FILE":"3198350","CENTER_NAME":"EARTH","REV_AT_EPOCH":"4119","EPOCH":"2021-11-02T20:40:52.914720","TIME_SYSTEM":"UTC","OBJECT_TYPE":"PAYLOAD","TLE_LINE1":"1 47586U 21009AQ  21306.86172355  .00000482  00000-0  51239-4 0  9999","ECCENTRICITY":"0.00014030","SEMIMAJOR_AXIS":"6925.346","ELEMENT_SET_NO":"999","PERIAPSIS":"546.239","MEAN_ANOMALY":"289.4098","MEAN_ELEMENT_THEORY":"SGP4","TLE_LINE2":"2 47586  53.0556 329.6491 0001403  70.7042 289.4098 15.06400890 41196","MEAN_MOTION_DDOT":"0.0000000000000","LAUNCH_DATE":"2021-02-04","RA_OF_ASC_NODE":"329.6491","RCS_SIZE":"LARGE","REF_FRAME":"TEME","ARG_OF_PERICENTER":"70.7042","MEAN_MOTION":"15.06400890","NORAD_CAT_ID":"47586","APOAPSIS":"548.182","DECAY_DATE":null},{"ARG_OF_PERICENTER":"75.4477","REF_FRAME":"TEME","RCS_SIZE":"LARGE","RA_OF_ASC_NODE":"300.2701","MEAN_MOTION":"15.06386559","APOAPSIS":"548.458","NORAD_CAT_ID":"47587","DECAY_DATE":null,"OBJECT_TYPE":"PAYLOAD","TIME_SYSTEM":"UTC","EPOCH":"2021-11-02T17:23:10.720032","TLE_LINE1":"1 47587U 21009AR  21306.72442963 -.00001496  00000-0 -81597-4 0  9998","PERIAPSIS":"546.051","SEMIMAJOR_AXIS":"6925.390","ELEMENT_SET_NO":"999","ECCENTRICITY":"0.00017380","LAUNCH_DATE":"2021-02-04","MEAN_MOTION_DDOT":"0.0000000000000","TLE_LINE2":"2 47587  53.0555 300.2701 0001738  75.4477 284.6705 15.06386559 41591","MEAN_ANOMALY":"284.6705","MEAN_ELEMENT_THEORY":"SGP4","GP_ID":"188774604","SITE":"AFETR","REV_AT_EPOCH":"4159","CENTER_NAME":"EARTH","FILE":"3198350","BSTAR":"-0.00008159700000","PERIOD":"95.593","CLASSIFICATION_TYPE":"U","COUNTRY_CODE":"US","OBJECT_NAME":"STARLINK-1991","OBJECT_ID":"2021-009AR","EPHEMERIS_TYPE":"0","MEAN_MOTION_DOT":"-0.00001496","INCLINATION":"53.0555"},{"MEAN_MOTION_DOT":"0.00001660","INCLINATION":"53.0543","EPHEMERIS_TYPE":"0","OBJECT_NAME":"STARLINK-1993","OBJECT_ID":"2021-009AS","COUNTRY_CODE":"US","CLASSIFICATION_TYPE":"U","PERIOD":"95.592","BSTAR":"0.00013033000000","FILE":"3198350","REV_AT_EPOCH":"4145","CENTER_NAME":"EARTH","SITE":"AFETR","GP_ID":"188774856","MEAN_ANOMALY":"281.9128","MEAN_ELEMENT_THEORY":"SGP4","MEAN_MOTION_DDOT":"0.0000000000000","TLE_LINE2":"2 47588  53.0543 310.3190 0001431  78.2021 281.9128 15.06403977 41457","LAUNCH_DATE":"2021-02-04","SEMIMAJOR_AXIS":"6925.336","ELEMENT_SET_NO":"999","ECCENTRICITY":"0.00014310","PERIAPSIS":"546.210","TLE_LINE1":"1 47588U 21009AS  21306.71612325  .00001660  00000-0  13033-3 0  9999","EPOCH":"2021-11-02T17:11:13.048800","TIME_SYSTEM":"UTC","OBJECT_TYPE":"PAYLOAD","DECAY_DATE":null,"NORAD_CAT_ID":"47588","APOAPSIS":"548.192","MEAN_MOTION":"15.06403977","RA_OF_ASC_NODE":"310.3190","RCS_SIZE":"LARGE","REF_FRAME":"TEME","ARG_OF_PERICENTER":"78.2021"},{"DECAY_DATE":null,"NORAD_CAT_ID":"47589","APOAPSIS":"548.215","MEAN_MOTION":"15.06397857","RCS_SIZE":"LARGE","RA_OF_ASC_NODE":"310.2234","ARG_OF_PERICENTER":"78.8522","REF_FRAME":"TEME","TLE_LINE2":"2 47589  53.0559 310.2234 0001436  78.8522 281.2628 15.06397857 41457","MEAN_MOTION_DDOT":"0.0000000000000","MEAN_ANOMALY":"281.2628","MEAN_ELEMENT_THEORY":"SGP4","LAUNCH_DATE":"2021-02-04","ECCENTRICITY":"0.00014360","SEMIMAJOR_AXIS":"6925.355","ELEMENT_SET_NO":"999","PERIAPSIS":"546.226","TLE_LINE1":"1 47589U 21009AT  21306.73456551  .00000201  00000-0  32403-4 0  9992","TIME_SYSTEM":"UTC","OBJECT_TYPE":"PAYLOAD","EPOCH":"2021-11-02T17:37:46.460064","FILE":"3198350","CENTER_NAME":"EARTH","REV_AT_EPOCH":"4145","SITE":"AFETR","GP_ID":"188775606","MEAN_MOTION_DOT":"0.00000201","INCLINATION":"53.0559","OBJECT_NAME":"STARLINK-1994","OBJECT_ID":"2021-009AT","EPHEMERIS_TYPE":"0","COUNTRY_CODE":"US","CLASSIFICATION_TYPE":"U","PERIOD":"95.592","BSTAR":"0.00003240300000"},{"EPHEMERIS_TYPE":"0","OBJECT_ID":"2021-009AU","OBJECT_NAME":"STARLINK-1995","MEAN_MOTION_DOT":"-0.00000602","INCLINATION":"53.0563","COUNTRY_CODE":"US","CLASSIFICATION_TYPE":"U","BSTAR":"-0.00002149700000","PERIOD":"95.592","CENTER_NAME":"EARTH","REV_AT_EPOCH":"4173","FILE":"3198065","SITE":"AFETR","GP_ID":"188746219","LAUNCH_DATE":"2021-02-04","MEAN_ELEMENT_THEORY":"SGP4","MEAN_ANOMALY":"288.0431","MEAN_MOTION_DDOT":"0.0000000000000","TLE_LINE2":"2 47590  53.0563 331.4543 0001285  72.0698 288.0431 15.06398196 41739","PERIAPSIS":"546.329","SEMIMAJOR_AXIS":"6925.354","ELEMENT_SET_NO":"999","ECCENTRICITY":"0.00012850","TLE_LINE1":"1 47590U 21009AU  21306.45996057 -.00000602  00000-0 -21497-4 0  9991","EPOCH":"2021-11-02T11:02:20.593248","TIME_SYSTEM":"UTC","OBJECT_TYPE":"PAYLOAD","DECAY_DATE":null,"NORAD_CAT_ID":"47590","APOAPSIS":"548.109","MEAN_MOTION":"15.06398196","REF_FRAME":"TEME","ARG_OF_PERICENTER":"72.0698","RA_OF_ASC_NODE":"331.4543","RCS_SIZE":"LARGE"},{"GP_ID":"188774105","SITE":"AFETR","CENTER_NAME":"EARTH","REV_AT_EPOCH":"4145","FILE":"3198350","BSTAR":"0.00022970000000","PERIOD":"95.592","CLASSIFICATION_TYPE":"U","COUNTRY_CODE":"US","OBJECT_ID":"2021-009AV","OBJECT_NAME":"STARLINK-1996","EPHEMERIS_TYPE":"0","INCLINATION":"53.0545","MEAN_MOTION_DOT":"0.00003142","ARG_OF_PERICENTER":"77.5935","REF_FRAME":"TEME","RCS_SIZE":"LARGE","RA_OF_ASC_NODE":"310.2282","MEAN_MOTION":"15.06406252","APOAPSIS":"548.264","NORAD_CAT_ID":"47591","DECAY_DATE":null,"TIME_SYSTEM":"UTC","OBJECT_TYPE":"PAYLOAD","EPOCH":"2021-11-02T17:32:27.201696","TLE_LINE1":"1 47591U 21009AV  21306.73087039  .00003142  00000-0  22970-3 0  9990","PERIAPSIS":"546.124","SEMIMAJOR_AXIS":"6925.329","ELEMENT_SET_NO":"999","ECCENTRICITY":"0.00015450","LAUNCH_DATE":"2021-02-04","TLE_LINE2":"2 47591  53.0545 310.2282 0001545  77.5935 282.5227 15.06406252 41452","MEAN_MOTION_DDOT":"0.0000000000000","MEAN_ELEMENT_THEORY":"SGP4","MEAN_ANOMALY":"282.5227"},{"GP_ID":"188745633","SITE":"AFETR","FILE":"3198021","CENTER_NAME":"EARTH","REV_AT_EPOCH":"4173","PERIOD":"95.593","BSTAR":"-0.00002904000000","CLASSIFICATION_TYPE":"U","COUNTRY_CODE":"US","MEAN_MOTION_DOT":"-0.00000714","INCLINATION":"53.0562","EPHEMERIS_TYPE":"0","OBJECT_ID":"2021-009AW","OBJECT_NAME":"STARLINK-1997","RCS_SIZE":"LARGE","RA_OF_ASC_NODE":"331.3023","ARG_OF_PERICENTER":"83.1965","REF_FRAME":"TEME","MEAN_MOTION":"15.06393437","APOAPSIS":"548.239","NORAD_CAT_ID":"47592","DECAY_DATE":null,"EPOCH":"2021-11-02T11:55:25.168512","TIME_SYSTEM":"UTC","OBJECT_TYPE":"PAYLOAD","TLE_LINE1":"1 47592U 21009AW  21306.49681908 -.00000714  00000-0 -29040-4 0  9999","SEMIMAJOR_AXIS":"6925.369","ELEMENT_SET_NO":"999","ECCENTRICITY":"0.00014510","PERIAPSIS":"546.229","MEAN_ANOMALY":"276.9189","MEAN_ELEMENT_THEORY":"SGP4","MEAN_MOTION_DDOT":"0.0000000000000","TLE_LINE2":"2 47592  53.0562 331.3023 0001451  83.1965 276.9189 15.06393437 41736","LAUNCH_DATE":"2021-02-04"}];
